ORBCOMM FM06            
1 25118U 97084G   26197.46385006  .00000427  00000+0  15401-3 0  9998
2 25118  45.0136 271.7670 0001591 235.8178 139.2905 14.47628571498632
ORBCOMM FM04            
1 25159U 98007C   26197.86604813  .00000344  00000+0  16341-3 0  9995
2 25159 107.9632 230.5053 0041973 274.0820  85.5524 14.35786262480855
ORBCOMM FM19            
1 25415U 98046C   26198.14857183  .00000390  00000+0  16921-3 0  9990
2 25415  44.9936 101.1368 0003246  75.8966  72.2293 14.39543462461096
ORBCOMM FM20            
1 25416U 98046D   26198.16272578  .00000280  00000+0  13814-3 0  9998
2 25416  44.9937 109.3238 0001237  11.1792 348.9084 14.38101952461108
ORBCOMM FM27            
1 25481U 98053G   26197.06510712  .00000301  00000+0  14186-3 0  9998
2 25481  45.0036 198.1872 0002378 294.2041  65.8559 14.39185706454395
ORBCOMM FM32            
1 25982U 99065C   26197.97322458  .00000261  00000+0  13437-3 0  9999
2 25982  45.0159  32.2461 0005851 200.5638 159.4975 14.37169469391376
ORBCOMM FM109           
1 40086U 14040A   26197.34218367  .00000059  00000+0  48786-4 0  9996
2 40086  47.0037 313.6423 0001436 327.9203  32.1595 14.58872505638606
ORBCOMM FM110           
1 41182U 15081D   26198.10027389  .00000155  00000+0  68947-4 0  9995
2 41182  47.0002 220.0009 0003674 230.3592 129.6970 14.58919410561994
ORBCOMM FM118           
1 41183U 15081E   26198.13472139  .00000024  00000+0  41417-4 0  9994
2 41183  47.0024 220.1769 0002992 195.0175 165.0623 14.58904651562103
ORBCOMM FM112           
1 41184U 15081F   26198.13867914  .00000255  00000+0  90032-4 0  9997
2 41184  46.9983 128.6088 0003571 336.6214  23.4509 14.58940104563321
ORBCOMM FM113           
1 41185U 15081G   26198.18483880  .00000107  00000+0  58832-4 0  9997
2 41185  47.0001 128.7827 0002115 329.1270  30.9491 14.58883148563315
ORBCOMM FM108           
1 41187U 15081J   26197.94134359  .00000230  00000+0  84789-4 0  9993
2 41187  47.0056  41.5154 0002521 328.5307  31.5427 14.58911927564423
ORBCOMM FM117           
1 41188U 15081K   26197.97557819  .00000216  00000+0  81833-4 0  9998
2 41188  47.0020  39.9802 0002926 336.5512  23.5240 14.58899012564471
ORBCOMM FM116           
1 41189U 15081L   26198.16116003  .00000120  00000+0  61499-4 0  9997
2 41189  47.0016 128.8918 0001612 234.8514 125.2221 14.58907395563311
